{
  "type": "FeatureCollection",
  "features": [
    {
      "type": "Feature",
      "properties": {
        "norad_id": 40894,
        "name": "GAOFEN-9 01",
        "group": "resource",
        "lat": 41.42476244810164,
        "lon": 9.38382612944116,
        "alt_km": 599.9215784730131,
        "timestamp": "2025-12-02T19:35:50.219050+00:00",
        "meta_object_name": "GAOFEN-9 01",
        "meta_object_id": "2015-047A",
        "meta_epoch": "2025-12-02T12:55:46.934688",
        "meta_mean_motion": 14.82380155,
        "meta_eccentricity": 0.002897,
        "meta_inclination": 97.6557,
        "meta_ra_of_asc_node": 15.9344,
        "meta_arg_of_pericenter": 66.4188,
        "meta_mean_anomaly": 294.0064,
        "meta_ephemeris_type": 0,
        "meta_classification_type": "U",
        "meta_norad_cat_id": 40894,
        "meta_element_set_no": 999,
        "meta_rev_at_epoch": 55105,
        "meta_bstar": 0.00020788,
        "meta_mean_motion_dot": 1.625e-05,
        "meta_mean_motion_ddot": 0,
        "tle_line1": "1 40894U 15047A   25336.53873767  .00001625  00000+0  20788-3 0  9998",
        "tle_line2": "2 40894  97.6557  15.9344 0028970  66.4188 294.0064 14.82380155551059"
      },
      "geometry": {
        "type": "Point",
        "coordinates": [
          9.38382612944116,
          41.42476244810164
        ]
      }
    },
    {
      "type": "Feature",
      "properties": {
        "norad_id": 41026,
        "name": "YAOGAN-28",
        "group": "resource",
        "lat": 37.545107118901896,
        "lon": -59.47077535604432,
        "alt_km": 483.1011459047986,
        "timestamp": "2025-12-02T19:35:50.219060+00:00",
        "meta_object_name": "YAOGAN-28",
        "meta_object_id": "2015-064A",
        "meta_epoch": "2025-12-02T12:40:24.039264",
        "meta_mean_motion": 15.2407305,
        "meta_eccentricity": 0.001187,
        "meta_inclination": 97.2795,
        "meta_ra_of_asc_node": 114.6109,
        "meta_arg_of_pericenter": 160.0739,
        "meta_mean_anomaly": 200.0964,
        "meta_ephemeris_type": 0,
        "meta_classification_type": "U",
        "meta_norad_cat_id": 41026,
        "meta_element_set_no": 999,
        "meta_rev_at_epoch": 56069,
        "meta_bstar": 0.00051149,
        "meta_mean_motion_dot": 0.0001238,
        "meta_mean_motion_ddot": 0,
        "tle_line1": "1 41026U 15064A   25336.52805601  .00012380  00000+0  51149-3 0  9991",
        "tle_line2": "2 41026  97.2795 114.6109 0011870 160.0739 200.0964 15.24073050560693"
      },
      "geometry": {
        "type": "Point",
        "coordinates": [
          -59.47077535604432,
          37.545107118901896
        ]
      }
    },
    {
      "type": "Feature",
      "properties": {
        "norad_id": 41038,
        "name": "YAOGAN-29",
        "group": "resource",
        "lat": -81.50434114573144,
        "lon": 70.7311919649046,
        "alt_km": 627.7135457645591,
        "timestamp": "2025-12-02T19:35:50.219071+00:00",
        "meta_object_name": "YAOGAN-29",
        "meta_object_id": "2015-069A",
        "meta_epoch": "2025-12-02T13:30:43.888608",
        "meta_mean_motion": 14.82864223,
        "meta_eccentricity": 8.28e-05,
        "meta_inclination": 98.0229,
        "meta_ra_of_asc_node": 359.7016,
        "meta_arg_of_pericenter": 10.1037,
        "meta_mean_anomaly": 350.0193,
        "meta_ephemeris_type": 0,
        "meta_classification_type": "U",
        "meta_norad_cat_id": 41038,
        "meta_element_set_no": 999,
        "meta_rev_at_epoch": 54148,
        "meta_bstar": 9.2829e-05,
        "meta_mean_motion_dot": 6.98e-06,
        "meta_mean_motion_ddot": 0,
        "tle_line1": "1 41038U 15069A   25336.56300797  .00000698  00000+0  92829-4 0  9999",
        "tle_line2": "2 41038  98.0229 359.7016 0000828  10.1037 350.0193 14.82864223541482"
      },
      "geometry": {
        "type": "Point",
        "coordinates": [
          70.7311919649046,
          -81.50434114573144
        ]
      }
    },
    {
      "type": "Feature",
      "properties": {
        "norad_id": 41167,
        "name": "KENT RIDGE 1",
        "group": "resource",
        "lat": 9.770018733821228,
        "lon": -35.14294847078017,
        "alt_km": 493.39007519947336,
        "timestamp": "2025-12-02T19:35:50.219081+00:00",
        "meta_object_name": "KENT RIDGE 1",
        "meta_object_id": "2015-077B",
        "meta_epoch": "2025-12-02T05:15:28.609632",
        "meta_mean_motion": 15.21503241,
        "meta_eccentricity": 0.0008704,
        "meta_inclination": 14.9806,
        "meta_ra_of_asc_node": 289.1971,
        "meta_arg_of_pericenter": 341.7782,
        "meta_mean_anomaly": 18.2228,
        "meta_ephemeris_type": 0,
        "meta_classification_type": "U",
        "meta_norad_cat_id": 41167,
        "meta_element_set_no": 999,
        "meta_rev_at_epoch": 55103,
        "meta_bstar": 0.00021780995,
        "meta_mean_motion_dot": 5.81e-05,
        "meta_mean_motion_ddot": 0,
        "tle_line1": "1 41167U 15077B   25336.21908113  .00005810  00000+0  21781-3 0  9998",
        "tle_line2": "2 41167  14.9806 289.1971 0008704 341.7782  18.2228 15.21503241551038"
      },
      "geometry": {
        "type": "Point",
        "coordinates": [
          -35.14294847078017,
          9.770018733821228
        ]
      }
    },
    {
      "type": "Feature",
      "properties": {
        "norad_id": 41194,
        "name": "GAOFEN-4",
        "group": "resource",
        "lat": 0.08369824501904062,
        "lon": 111.47612782231576,
        "alt_km": 35784.37395629706,
        "timestamp": "2025-12-02T19:35:50.219093+00:00",
        "meta_object_name": "GAOFEN-4",
        "meta_object_id": "2015-083A",
        "meta_epoch": "2025-12-02T12:34:31.975680",
        "meta_mean_motion": 1.00266749,
        "meta_eccentricity": 0.0003443,
        "meta_inclination": 0.1422,
        "meta_ra_of_asc_node": 80.5276,
        "meta_arg_of_pericenter": 108.1019,
        "meta_mean_anomaly": 177.3034,
        "meta_ephemeris_type": 0,
        "meta_classification_type": "U",
        "meta_norad_cat_id": 41194,
        "meta_element_set_no": 999,
        "meta_rev_at_epoch": 3655,
        "meta_bstar": 0,
        "meta_mean_motion_dot": -3.14e-06,
        "meta_mean_motion_ddot": 0,
        "tle_line1": "1 41194U 15083A   25336.52398120 -.00000314  00000+0  00000+0 0  9992",
        "tle_line2": "2 41194   0.1422  80.5276 0003443 108.1019 177.3034  1.00266749 36551"
      },
      "geometry": {
        "type": "Point",
        "coordinates": [
          111.47612782231576,
          0.08369824501904062
        ]
      }
    },
    {
      "type": "Feature",
      "properties": {
        "norad_id": 41240,
        "name": "JASON-3",
        "group": "resource",
        "lat": 33.81525333942147,
        "lon": -163.98471639771282,
        "alt_km": 1311.1706083914905,
        "timestamp": "2025-12-02T19:35:50.219104+00:00",
        "meta_object_name": "JASON-3",
        "meta_object_id": "2016-002A",
        "meta_epoch": "2025-12-02T11:56:48.212736",
        "meta_mean_motion": 12.8762595,
        "meta_eccentricity": 0.0007148,
        "meta_inclination": 66.0392,
        "meta_ra_of_asc_node": 179.3572,
        "meta_arg_of_pericenter": 270.2646,
        "meta_mean_anomaly": 89.7554,
        "meta_ephemeris_type": 0,
        "meta_classification_type": "U",
        "meta_norad_cat_id": 41240,
        "meta_element_set_no": 999,
        "meta_rev_at_epoch": 46192,
        "meta_bstar": 0.00023237,
        "meta_mean_motion_dot": -3e-08,
        "meta_mean_motion_ddot": 0,
        "tle_line1": "1 41240U 16002A   25336.49778024 -.00000003  00000+0  23237-3 0  9993",
        "tle_line2": "2 41240  66.0392 179.3572 0007148 270.2646  89.7554 12.87625950461925"
      },
      "geometry": {
        "type": "Point",
        "coordinates": [
          -163.98471639771282,
          33.81525333942147
        ]
      }
    },
    {
      "type": "Feature",
      "properties": {
        "norad_id": 41335,
        "name": "SENTINEL-3A",
        "group": "resource",
        "lat": 5.804595426834252,
        "lon": -137.1439412160915,
        "alt_km": 804.7064624819695,
        "timestamp": "2025-12-02T19:35:50.219115+00:00",
        "meta_object_name": "SENTINEL-3A",
        "meta_object_id": "2016-011A",
        "meta_epoch": "2025-12-02T12:03:06.935040",
        "meta_mean_motion": 14.26740177,
        "meta_eccentricity": 0.0001002,
        "meta_inclination": 98.6221,
        "meta_ra_of_asc_node": 41.6626,
        "meta_arg_of_pericenter": 91.2559,
        "meta_mean_anomaly": 268.8736,
        "meta_ephemeris_type": 0,
        "meta_classification_type": "U",
        "meta_norad_cat_id": 41335,
        "meta_element_set_no": 999,
        "meta_rev_at_epoch": 51001,
        "meta_bstar": 0.00010467,
        "meta_mean_motion_dot": 2.1e-06,
        "meta_mean_motion_ddot": 0,
        "tle_line1": "1 41335U 16011A   25336.50216360  .00000210  00000+0  10467-3 0  9990",
        "tle_line2": "2 41335  98.6221  41.6626 0001002  91.2559 268.8736 14.26740177510011"
      },
      "geometry": {
        "type": "Point",
        "coordinates": [
          -137.1439412160915,
          5.804595426834252
        ]
      }
    }
  ]
}